{
  "type": "FeatureCollection",
  "features": [
    {
      "type": "Feature",
      "properties": {
        "norad_id": 34619,
        "name": "COSMOS 2251 DEB",
        "group": "cosmos-2251-debris",
        "lat": -40.62120890934096,
        "lon": 12.03885255366494,
        "alt_km": 638.8372802500671,
        "timestamp": "2025-12-24T05:51:20.004238+00:00",
        "meta_object_name": "COSMOS 2251 DEB",
        "meta_object_id": "1993-036WQ",
        "meta_epoch": "2025-12-23T22:16:37.683552",
        "meta_mean_motion": 14.64671627,
        "meta_eccentricity": 0.00947512,
        "meta_inclination": 74.0426,
        "meta_ra_of_asc_node": 178.4384,
        "meta_arg_of_pericenter": 270.7554,
        "meta_mean_anomaly": 88.2759,
        "meta_ephemeris_type": 0,
        "meta_classification_type": "U",
        "meta_norad_cat_id": 34619,
        "meta_element_set_no": 999,
        "meta_rev_at_epoch": 89462,
        "meta_bstar": 0.00021600105,
        "meta_mean_motion_dot": 1.192e-05,
        "meta_mean_motion_ddot": 0,
        "tle_line1": "1 34619U 93036WQ  25357.92821393  .00001192  00000+0  21600-3 0  9997",
        "tle_line2": "2 34619  74.0426 178.4384 0094751 270.7554  88.2759 14.64671627894621"
      },
      "geometry": {
        "type": "Point",
        "coordinates": [
          12.03885255366494,
          -40.62120890934096
        ]
      }
    },
    {
      "type": "Feature",
      "properties": {
        "norad_id": 34620,
        "name": "COSMOS 2251 DEB",
        "group": "cosmos-2251-debris",
        "lat": -0.4107859439199035,
        "lon": 18.093725687747252,
        "alt_km": 695.1466226154816,
        "timestamp": "2025-12-24T05:51:20.004248+00:00",
        "meta_object_name": "COSMOS 2251 DEB",
        "meta_object_id": "1993-036WR",
        "meta_epoch": "2025-12-22T19:53:08.358144",
        "meta_mean_motion": 14.49244433,
        "meta_eccentricity": 0.00797098,
        "meta_inclination": 74.05,
        "meta_ra_of_asc_node": 200.6279,
        "meta_arg_of_pericenter": 234.7652,
        "meta_mean_anomaly": 124.603,
        "meta_ephemeris_type": 0,
        "meta_classification_type": "U",
        "meta_norad_cat_id": 34620,
        "meta_element_set_no": 999,
        "meta_rev_at_epoch": 86973,
        "meta_bstar": 0.0021100486,
        "meta_mean_motion_dot": 8.356e-05,
        "meta_mean_motion_ddot": 0,
        "tle_line1": "1 34620U 93036WR  25356.82856896  .00008356  00000+0  21100-2 0  9996",
        "tle_line2": "2 34620  74.0500 200.6279 0079709 234.7652 124.6030 14.49244433869737"
      },
      "geometry": {
        "type": "Point",
        "coordinates": [
          18.093725687747252,
          -0.4107859439199035
        ]
      }
    },
    {
      "type": "Feature",
      "properties": {
        "norad_id": 34622,
        "name": "COSMOS 2251 DEB",
        "group": "cosmos-2251-debris",
        "lat": 40.69562399508482,
        "lon": 92.12529828303053,
        "alt_km": 863.9137150418819,
        "timestamp": "2025-12-24T05:51:20.004258+00:00",
        "meta_object_name": "COSMOS 2251 DEB",
        "meta_object_id": "1993-036WT",
        "meta_epoch": "2025-12-23T19:13:35.719104",
        "meta_mean_motion": 14.22087149,
        "meta_eccentricity": 0.01049092,
        "meta_inclination": 74.0426,
        "meta_ra_of_asc_node": 287.1645,
        "meta_arg_of_pericenter": 7.0054,
        "meta_mean_anomaly": 22.9038,
        "meta_ephemeris_type": 0,
        "meta_classification_type": "U",
        "meta_norad_cat_id": 34622,
        "meta_element_set_no": 999,
        "meta_rev_at_epoch": 86617,
        "meta_bstar": 0.00076308592,
        "meta_mean_motion_dot": 1.761e-05,
        "meta_mean_motion_ddot": 0,
        "tle_line1": "1 34622U 93036WT  25357.80110786  .00001761  00000+0  76309-3 0  9993",
        "tle_line2": "2 34622  74.0426 287.1645 0104909   7.0054  22.9038 14.22087149866174"
      },
      "geometry": {
        "type": "Point",
        "coordinates": [
          92.12529828303053,
          40.69562399508482
        ]
      }
    },
    {
      "type": "Feature",
      "properties": {
        "norad_id": 34626,
        "name": "COSMOS 2251 DEB",
        "group": "cosmos-2251-debris",
        "lat": -54.466238076590805,
        "lon": 145.13329551538612,
        "alt_km": 676.6452885340359,
        "timestamp": "2025-12-24T05:51:20.004268+00:00",
        "meta_object_name": "COSMOS 2251 DEB",
        "meta_object_id": "1993-036WX",
        "meta_epoch": "2025-12-23T22:31:44.913792",
        "meta_mean_motion": 14.72328215,
        "meta_eccentricity": 0.00271785,
        "meta_inclination": 74.0483,
        "meta_ra_of_asc_node": 302.1177,
        "meta_arg_of_pericenter": 27.2437,
        "meta_mean_anomaly": 33.3112,
        "meta_ephemeris_type": 0,
        "meta_classification_type": "U",
        "meta_norad_cat_id": 34626,
        "meta_element_set_no": 999,
        "meta_rev_at_epoch": 89309,
        "meta_bstar": 0.0010725594,
        "meta_mean_motion_dot": 6.798e-05,
        "meta_mean_motion_ddot": 0,
        "tle_line1": "1 34626U 93036WX  25357.93871428  .00006798  00000+0  10726-2 0  9993",
        "tle_line2": "2 34626  74.0483 302.1177 0027178  27.2437  33.3112 14.72328215893097"
      },
      "geometry": {
        "type": "Point",
        "coordinates": [
          145.13329551538612,
          -54.466238076590805
        ]
      }
    },
    {
      "type": "Feature",
      "properties": {
        "norad_id": 34634,
        "name": "COSMOS 2251 DEB",
        "group": "cosmos-2251-debris",
        "lat": 69.79196315836373,
        "lon": 64.16908089072874,
        "alt_km": 676.1107249290772,
        "timestamp": "2025-12-24T05:51:20.004278+00:00",
        "meta_object_name": "COSMOS 2251 DEB",
        "meta_object_id": "1993-036XF",
        "meta_epoch": "2025-12-23T19:52:34.347648",
        "meta_mean_motion": 14.55686616,
        "meta_eccentricity": 0.00436912,
        "meta_inclination": 74.0513,
        "meta_ra_of_asc_node": 13.979,
        "meta_arg_of_pericenter": 117.9731,
        "meta_mean_anomaly": 301.6783,
        "meta_ephemeris_type": 0,
        "meta_classification_type": "U",
        "meta_norad_cat_id": 34634,
        "meta_element_set_no": 999,
        "meta_rev_at_epoch": 88943,
        "meta_bstar": 0.00027540536,
        "meta_mean_motion_dot": 1.19e-05,
        "meta_mean_motion_ddot": 0,
        "tle_line1": "1 34634U 93036XF  25357.82817532  .00001190  00000+0  27541-3 0  9991",
        "tle_line2": "2 34634  74.0513  13.9790 0043691 117.9731 301.6783 14.55686616889431"
      },
      "geometry": {
        "type": "Point",
        "coordinates": [
          64.16908089072874,
          69.79196315836373
        ]
      }
    },
    {
      "type": "Feature",
      "properties": {
        "norad_id": 34635,
        "name": "COSMOS 2251 DEB",
        "group": "cosmos-2251-debris",
        "lat": 69.22564665598331,
        "lon": 179.53154129302538,
        "alt_km": 639.8736177251831,
        "timestamp": "2025-12-24T05:51:20.004288+00:00",
        "meta_object_name": "COSMOS 2251 DEB",
        "meta_object_id": "1993-036XG",
        "meta_epoch": "2025-12-23T22:01:23.380608",
        "meta_mean_motion": 14.68396642,
        "meta_eccentricity": 0.00276964,
        "meta_inclination": 74.0451,
        "meta_ra_of_asc_node": 49.1122,
        "meta_arg_of_pericenter": 113.916,
        "meta_mean_anomaly": 65.1361,
        "meta_ephemeris_type": 0,
        "meta_classification_type": "U",
        "meta_norad_cat_id": 34635,
        "meta_element_set_no": 999,
        "meta_rev_at_epoch": 73383,
        "meta_bstar": 0.0010457167,
        "meta_mean_motion_dot": 6.057e-05,
        "meta_mean_motion_ddot": 0,
        "tle_line1": "1 34635U 93036XG  25357.91763172  .00006057  00000+0  10457-2 0  9996",
        "tle_line2": "2 34635  74.0451  49.1122 0027696 113.9160  65.1361 14.68396642733839"
      },
      "geometry": {
        "type": "Point",
        "coordinates": [
          179.53154129302538,
          69.22564665598331
        ]
      }
    },
    {
      "type": "Feature",
      "properties": {
        "norad_id": 34637,
        "name": "COSMOS 2251 DEB",
        "group": "cosmos-2251-debris",
        "lat": -43.17136131001647,
        "lon": 63.65448941533847,
        "alt_km": 732.7582044888841,
        "timestamp": "2025-12-24T05:51:20.004297+00:00",
        "meta_object_name": "COSMOS 2251 DEB",
        "meta_object_id": "1993-036XJ",
        "meta_epoch": "2025-12-23T12:02:54.838176",
        "meta_mean_motion": 14.60183859,
        "meta_eccentricity": 0.00489931,
        "meta_inclination": 74.05,
        "meta_ra_of_asc_node": 80.6317,
        "meta_arg_of_pericenter": 148.2362,
        "meta_mean_anomaly": 227.7441,
        "meta_ephemeris_type": 0,
        "meta_classification_type": "U",
        "meta_norad_cat_id": 34637,
        "meta_element_set_no": 999,
        "meta_rev_at_epoch": 88684,
        "meta_bstar": 0.00085838168,
        "meta_mean_motion_dot": 4.178e-05,
        "meta_mean_motion_ddot": 0,
        "tle_line1": "1 34637U 93036XJ  25357.50202359  .00004178  00000+0  85838-3 0  9996",
        "tle_line2": "2 34637  74.0500  80.6317 0048993 148.2362 227.7441 14.60183859886841"
      },
      "geometry": {
        "type": "Point",
        "coordinates": [
          63.65448941533847,
          -43.17136131001647
        ]
      }
    }
  ]
}